[{"OBJECT_NAME":"SES-6","OBJECT_ID":"2013-026A","EPOCH":"2026-03-05T05:14:53.123424","MEAN_MOTION":1.00271932,"ECCENTRICITY":0.00018522,"INCLINATION":0.0642,"RA_OF_ASC_NODE":289.4331,"ARG_OF_PERICENTER":63.3125,"MEAN_ANOMALY":208.4103,"EPHEMERIS_TYPE":0,"CLASSIFICATION_TYPE":"U","NORAD_CAT_ID":39172,"ELEMENT_SET_NO":999,"REV_AT_EPOCH":4668,"BSTAR":0,"MEAN_MOTION_DOT":-2.7e-6,"MEAN_MOTION_DDOT":0},{"OBJECT_NAME":"IRNSS-1A","OBJECT_ID":"2013-034A","EPOCH":"2026-03-03T14:19:51.811680","MEAN_MOTION":1.00269823,"ECCENTRICITY":0.0017825,"INCLINATION":35.4874,"RA_OF_ASC_NODE":65.3779,"ARG_OF_PERICENTER":190.7092,"MEAN_ANOMALY":175.2371,"EPHEMERIS_TYPE":0,"CLASSIFICATION_TYPE":"U","NORAD_CAT_ID":39199,"ELEMENT_SET_NO":999,"REV_AT_EPOCH":4631,"BSTAR":0,"MEAN_MOTION_DOT":8.1e-7,"MEAN_MOTION_DDOT":0},{"OBJECT_NAME":"MUOS-2","OBJECT_ID":"2013-036A","EPOCH":"2026-03-04T02:52:36.553728","MEAN_MOTION":1.00273466,"ECCENTRICITY":0.00531378,"INCLINATION":4.7853,"RA_OF_ASC_NODE":45.3224,"ARG_OF_PERICENTER":184.1359,"MEAN_ANOMALY":147.5681,"EPHEMERIS_TYPE":0,"CLASSIFICATION_TYPE":"U","NORAD_CAT_ID":39206,"ELEMENT_SET_NO":999,"REV_AT_EPOCH":4613,"BSTAR":0,"MEAN_MOTION_DOT":-2.2e-7,"MEAN_MOTION_DDOT":0},{"OBJECT_NAME":"ALPHASAT","OBJECT_ID":"2013-038A","EPOCH":"2026-03-05T05:33:28.841184","MEAN_MOTION":1.00270158,"ECCENTRICITY":0.00019132,"INCLINATION":2.9814,"RA_OF_ASC_NODE":2.157,"ARG_OF_PERICENTER":359.4441,"MEAN_ANOMALY":269.6091,"EPHEMERIS_TYPE":0,"CLASSIFICATION_TYPE":"U","NORAD_CAT_ID":39215,"ELEMENT_SET_NO":999,"REV_AT_EPOCH":4297,"BSTAR":0,"MEAN_MOTION_DOT":1.27e-6,"MEAN_MOTION_DDOT":0},{"OBJECT_NAME":"INSAT-3D","OBJECT_ID":"2013-038B","EPOCH":"2026-03-05T06:14:38.604192","MEAN_MOTION":1.00273114,"ECCENTRICITY":0.00017337,"INCLINATION":1.6576,"RA_OF_ASC_NODE":83.9021,"ARG_OF_PERICENTER":243.967,"MEAN_ANOMALY":58.2745,"EPHEMERIS_TYPE":0,"CLASSIFICATION_TYPE":"U","NORAD_CAT_ID":39216,"ELEMENT_SET_NO":999,"REV_AT_EPOCH":4603,"BSTAR":0,"MEAN_MOTION_DOT":-3.47e-6,"MEAN_MOTION_DDOT":0},{"OBJECT_NAME":"WGS F6 (USA 244)","OBJECT_ID":"2013-041A","EPOCH":"2026-03-04T11:59:38.898528","MEAN_MOTION":1.00273061,"ECCENTRICITY":0.0001539,"INCLINATION":0.0186,"RA_OF_ASC_NODE":133.169,"ARG_OF_PERICENTER":193.1675,"MEAN_ANOMALY":240.6127,"EPHEMERIS_TYPE":0,"CLASSIFICATION_TYPE":"U","NORAD_CAT_ID":39222,"ELEMENT_SET_NO":999,"REV_AT_EPOCH":4501,"BSTAR":0,"MEAN_MOTION_DOT":7.8e-7,"MEAN_MOTION_DDOT":0},{"OBJECT_NAME":"ES'HAIL 1","OBJECT_ID":"2013-044A","EPOCH":"2026-03-05T04:49:38.668800","MEAN_MOTION":1.00271562,"ECCENTRICITY":0.00030666,"INCLINATION":0.0551,"RA_OF_ASC_NODE":353.6245,"ARG_OF_PERICENTER":354.0912,"MEAN_ANOMALY":273.1129,"EPHEMERIS_TYPE":0,"CLASSIFICATION_TYPE":"U","NORAD_CAT_ID":39233,"ELEMENT_SET_NO":999,"REV_AT_EPOCH":4558,"BSTAR":0,"MEAN_MOTION_DOT":1.34e-6,"MEAN_MOTION_DDOT":0},{"OBJECT_NAME":"GSAT-7","OBJECT_ID":"2013-044B","EPOCH":"2026-03-05T04:04:52.337280","MEAN_MOTION":1.00271583,"ECCENTRICITY":0.00065193,"INCLINATION":0.0237,"RA_OF_ASC_NODE":107.023,"ARG_OF_PERICENTER":186.6646,"MEAN_ANOMALY":4.4234,"EPHEMERIS_TYPE":0,"CLASSIFICATION_TYPE":"U","NORAD_CAT_ID":39234,"ELEMENT_SET_NO":999,"REV_AT_EPOCH":4421,"BSTAR":0,"MEAN_MOTION_DOT":-8.5e-7,"MEAN_MOTION_DDOT":0},{"OBJECT_NAME":"AMOS-4","OBJECT_ID":"2013-045A","EPOCH":"2026-03-05T05:47:38.745024","MEAN_MOTION":1.00272379,"ECCENTRICITY":0.0003318,"INCLINATION":0.0167,"RA_OF_ASC_NODE":147.7759,"ARG_OF_PERICENTER":201.5878,"MEAN_ANOMALY":325.5207,"EPHEMERIS_TYPE":0,"CLASSIFICATION_TYPE":"U","NORAD_CAT_ID":39237,"ELEMENT_SET_NO":999,"REV_AT_EPOCH":4591,"BSTAR":0,"MEAN_MOTION_DOT":-1.0e-8,"MEAN_MOTION_DDOT":0},{"OBJECT_NAME":"AEHF-3 (USA 246)","OBJECT_ID":"2013-050A","EPOCH":"2026-03-05T04:50:47.933088","MEAN_MOTION":1.00272976,"ECCENTRICITY":0.00916989,"INCLINATION":5.0375,"RA_OF_ASC_NODE":68.1427,"ARG_OF_PERICENTER":187.9367,"MEAN_ANOMALY":215.299,"EPHEMERIS_TYPE":0,"CLASSIFICATION_TYPE":"U","NORAD_CAT_ID":39256,"ELEMENT_SET_NO":999,"REV_AT_EPOCH":4461,"BSTAR":0,"MEAN_MOTION_DOT":2.3e-7,"MEAN_MOTION_DDOT":0},{"OBJECT_NAME":"ASTRA 2E","OBJECT_ID":"2013-056A","EPOCH":"2026-03-05T04:49:38.668800","MEAN_MOTION":1.00272455,"ECCENTRICITY":0.00021887,"INCLINATION":0.0708,"RA_OF_ASC_NODE":32.1041,"ARG_OF_PERICENTER":306.1197,"MEAN_ANOMALY":285.5926,"EPHEMERIS_TYPE":0,"CLASSIFICATION_TYPE":"U","NORAD_CAT_ID":39285,"ELEMENT_SET_NO":999,"REV_AT_EPOCH":4537,"BSTAR":0,"MEAN_MOTION_DOT":1.42e-6,"MEAN_MOTION_DDOT":0},{"OBJECT_NAME":"FM-6","OBJECT_ID":"2013-058A","EPOCH":"2026-03-04T22:49:38.670528","MEAN_MOTION":1.00269084,"ECCENTRICITY":0.00028603,"INCLINATION":0.0237,"RA_OF_ASC_NODE":126.4779,"ARG_OF_PERICENTER":55.9964,"MEAN_ANOMALY":206.424,"EPHEMERIS_TYPE":0,"CLASSIFICATION_TYPE":"U","NORAD_CAT_ID":39360,"ELEMENT_SET_NO":999,"REV_AT_EPOCH":4502,"BSTAR":0,"MEAN_MOTION_DOT":-2.6e-7,"MEAN_MOTION_DDOT":0},{"OBJECT_NAME":"RADUGA-1M 3","OBJECT_ID":"2013-062A","EPOCH":"2026-03-05T04:49:38.668800","MEAN_MOTION":1.00273885,"ECCENTRICITY":2.78e-5,"INCLINATION":5.6978,"RA_OF_ASC_NODE":73.6698,"ARG_OF_PERICENTER":303.1485,"MEAN_ANOMALY":253.5206,"EPHEMERIS_TYPE":0,"CLASSIFICATION_TYPE":"U","NORAD_CAT_ID":39375,"ELEMENT_SET_NO":999,"REV_AT_EPOCH":4506,"BSTAR":0,"MEAN_MOTION_DOT":1.47e-6,"MEAN_MOTION_DDOT":0},{"OBJECT_NAME":"SES-8","OBJECT_ID":"2013-071A","EPOCH":"2026-03-05T04:05:38.894784","MEAN_MOTION":1.00272834,"ECCENTRICITY":0.00016768,"INCLINATION":0.0563,"RA_OF_ASC_NODE":272.1162,"ARG_OF_PERICENTER":96.8028,"MEAN_ANOMALY":310.3904,"EPHEMERIS_TYPE":0,"CLASSIFICATION_TYPE":"U","NORAD_CAT_ID":39460,"ELEMENT_SET_NO":999,"REV_AT_EPOCH":4339,"BSTAR":0,"MEAN_MOTION_DOT":-2.78e-6,"MEAN_MOTION_DDOT":0},{"OBJECT_NAME":"INMARSAT 5-F1","OBJECT_ID":"2013-073A","EPOCH":"2026-03-04T16:42:32.264928","MEAN_MOTION":1.00270612,"ECCENTRICITY":3.218e-5,"INCLINATION":0.0214,"RA_OF_ASC_NODE":125.7805,"ARG_OF_PERICENTER":249.1759,"MEAN_ANOMALY":100.6615,"EPHEMERIS_TYPE":0,"CLASSIFICATION_TYPE":"U","NORAD_CAT_ID":39476,"ELEMENT_SET_NO":999,"REV_AT_EPOCH":4453,"BSTAR":0,"MEAN_MOTION_DOT":1.8e-7,"MEAN_MOTION_DDOT":0},{"OBJECT_NAME":"TKSAT-1 (TUPAC KATARI)","OBJECT_ID":"2013-075A","EPOCH":"2026-03-05T05:01:31.902528","MEAN_MOTION":1.00272884,"ECCENTRICITY":0.00030384,"INCLINATION":0.0523,"RA_OF_ASC_NODE":308.2599,"ARG_OF_PERICENTER":30.9766,"MEAN_ANOMALY":171.8899,"EPHEMERIS_TYPE":0,"CLASSIFICATION_TYPE":"U","NORAD_CAT_ID":39481,"ELEMENT_SET_NO":999,"REV_AT_EPOCH":4456,"BSTAR":0,"MEAN_MOTION_DOT":-2.04e-6,"MEAN_MOTION_DDOT":0},{"OBJECT_NAME":"EXPRESS-AM5","OBJECT_ID":"2013-077A","EPOCH":"2026-03-05T09:04:38.661600","MEAN_MOTION":1.0027194,"ECCENTRICITY":0.0002297,"INCLINATION":0.0174,"RA_OF_ASC_NODE":203.3903,"ARG_OF_PERICENTER":126.4564,"MEAN_ANOMALY":109.4426,"EPHEMERIS_TYPE":0,"CLASSIFICATION_TYPE":"U","NORAD_CAT_ID":39487,"ELEMENT_SET_NO":999,"REV_AT_EPOCH":4531,"BSTAR":0,"MEAN_MOTION_DOT":-2.88e-6,"MEAN_MOTION_DDOT":0}]
