SES-6                   
1 39172U 13026A   26064.21867041 -.00000270  00000+0  00000+0 0  9999
2 39172   0.0642 289.4331 0001852  63.3125 208.4103  1.00271932 46689
IRNSS-1A                
1 39199U 13034A   26062.59712745  .00000081  00000+0  00000+0 0  9995
2 39199  35.4874  65.3779 0017825 190.7092 175.2371  1.00269823 46313
MUOS-2                  
1 39206U 13036A   26063.11986752 -.00000022  00000+0  00000+0 0  9992
2 39206   4.7853  45.3224 0053137 184.1359 147.5681  1.00273466 46134
ALPHASAT                
1 39215U 13038A   26064.23158381  .00000127  00000+0  00000+0 0  9992
2 39215   2.9814   2.1570 0001913 359.4441 269.6091  1.00270158 42974
INSAT-3D                
1 39216U 13038B   26064.26016903 -.00000347  00000+0  00000+0 0  9994
2 39216   1.6576  83.9021 0001733 243.9670  58.2745  1.00273114 46039
WGS F6 (USA 244)        
1 39222U 13041A   26063.49975577  .00000078  00000+0  00000+0 0  9990
2 39222   0.0186 133.1690 0001539 193.1675 240.6127  1.00273061 45010
ES'HAIL 1               
1 39233U 13044A   26064.20114200  .00000134  00000+0  00000+0 0  9996
2 39233   0.0551 353.6245 0003066 354.0912 273.1129  1.00271562 45581
GSAT-7                  
1 39234U 13044B   26064.17005020 -.00000085  00000+0  00000+0 0  9998
2 39234   0.0237 107.0230 0006519 186.6646   4.4234  1.00271583 44211
AMOS-4                  
1 39237U 13045A   26064.24142066 -.00000001  00000+0  00000+0 0  9990
2 39237   0.0167 147.7759 0003318 201.5878 325.5207  1.00272379 45910
AEHF-3 (USA 246)        
1 39256U 13050A   26064.20194367  .00000023  00000+0  00000+0 0  9997
2 39256   5.0375  68.1427 0091698 187.9367 215.2990  1.00272976 44616
ASTRA 2E                
1 39285U 13056A   26064.20114200  .00000142  00000+0  00000+0 0  9995
2 39285   0.0708  32.1041 0002188 306.1197 285.5926  1.00272455 45373
FM-6                    
1 39360U 13058A   26063.95114202 -.00000026  00000+0  00000+0 0  9996
2 39360   0.0237 126.4779 0002860  55.9964 206.4240  1.00269084 45024
RADUGA-1M 3             
1 39375U 13062A   26064.20114200  .00000147  00000+0  00000+0 0  9997
2 39375   5.6978  73.6698 0000278 303.1485 253.5206  1.00273885 45066
SES-8                   
1 39460U 13071A   26064.17058906 -.00000278  00000+0  00000+0 0  9994
2 39460   0.0563 272.1162 0001676  96.8028 310.3904  1.00272834 43398
INMARSAT 5-F1           
1 39476U 13073A   26063.69620677  .00000018  00000+0  00000+0 0  9990
2 39476   0.0214 125.7805 0000321 249.1759 100.6615  1.00270612 44533
TKSAT-1 (TUPAC KATARI)  
1 39481U 13075A   26064.20939702 -.00000204  00000+0  00000+0 0  9996
2 39481   0.0523 308.2599 0003038  30.9766 171.8899  1.00272884 44562
EXPRESS-AM5             
1 39487U 13077A   26064.37822525 -.00000288  00000+0  00000+0 0  9998
2 39487   0.0174 203.3903 0002297 126.4564 109.4426  1.00271940 45316
